TYVAK-0172              
1 46267U 20059C   26068.62538449  .00278441  00000+0  21652-2 0  9997
2 46267  97.7214 311.0561 0003543  67.1132 293.0503 15.70916107303116
STARLINK-11275 [DTC]    
1 61579U 24187F   26068.87937604  .00007132  00000+0  63644-4 0  9995
2 61579  53.1581 295.0505 0001393 149.1421 210.9679 15.69723577 80731
