[{"OBJECT_NAME":"TYVAK-0172","OBJECT_ID":"2020-059C","EPOCH":"2026-03-09T15:00:33.219936","MEAN_MOTION":15.70916107,"ECCENTRICITY":0.0003543,"INCLINATION":97.7214,"RA_OF_ASC_NODE":311.0561,"ARG_OF_PERICENTER":67.1132,"MEAN_ANOMALY":293.0503,"EPHEMERIS_TYPE":0,"CLASSIFICATION_TYPE":"U","NORAD_CAT_ID":46267,"ELEMENT_SET_NO":999,"REV_AT_EPOCH":30311,"BSTAR":0.0021652,"MEAN_MOTION_DOT":0.00278441,"MEAN_MOTION_DDOT":0},{"OBJECT_NAME":"STARLINK-11275 [DTC]","OBJECT_ID":"2024-187F","EPOCH":"2026-03-09T21:06:18.089856","MEAN_MOTION":15.69723577,"ECCENTRICITY":0.00013934,"INCLINATION":53.1581,"RA_OF_ASC_NODE":295.0505,"ARG_OF_PERICENTER":149.1421,"MEAN_ANOMALY":210.9679,"EPHEMERIS_TYPE":0,"CLASSIFICATION_TYPE":"U","NORAD_CAT_ID":61579,"ELEMENT_SET_NO":999,"REV_AT_EPOCH":8073,"BSTAR":6.3644299e-5,"MEAN_MOTION_DOT":7.132e-5,"MEAN_MOTION_DDOT":0}]
